ONEWEB-0645             
1 55809U 23029P   24116.88772148  .00000016  00000+0  87666-5 0  9996
2 55809  87.9111 100.6722 0001536  95.5373 264.5935 13.19724936 55729
ONEWEB-0646             
1 55810U 23029Q   24116.99354736  .00000060  00000+0  11699-3 0  9999
2 55810  87.9111 100.6514 0002066  97.5494 262.5873 13.19726753 56410
ONEWEB-0648             
1 55811U 23029R   24116.92603686 -.00000008  00000+0 -55707-4 0  9997
2 55811  87.8931  85.3533 0001573 120.0237 240.1049 13.14502984 56622
ONEWEB-0649             
1 55812U 23029S   24117.03224379  .00000082  00000+0  17168-3 0  9997
2 55812  87.9108 100.6406 0001760 103.7596 256.3733 13.19724631 56454
ONEWEB-0650             
1 55813U 23029T   24116.95167350  .00000069  00000+0  13954-3 0  9997
2 55813  87.9110 100.6569 0002009  98.2159 261.9202 13.19723725 55723
ONEWEB-0652             
1 55814U 23029U   24116.90700703  .00000133  00000+0  32348-3 0  9998
2 55814  87.8930  85.3695 0001981  79.7029 280.4324 13.14500923 56595
ONEWEB-0653             
1 55815U 23029V   24116.96727293  .00000170  00000+0  42411-3 0  9991
2 55815  87.8931  85.3356 0001697  76.3625 283.7694 13.14502363 57328
ONEWEB-0654             
1 55816U 23029W   24116.88640292  .00000149  00000+0  36658-3 0  9998
2 55816  87.8927  85.3636 0002064  69.3120 290.8231 13.14504420 56642
